{
  "type": "FeatureCollection",
  "features": [
    {
      "type": "Feature",
      "properties": {
        "norad_id": 66573,
        "name": "STARLINK-35650",
        "group": "last-30-days",
        "lat": -42.97845441657948,
        "lon": 12.925161676086326,
        "alt_km": 416.9959016344992,
        "timestamp": "2025-12-15T19:00:44.076715+00:00",
        "meta_object_name": "STARLINK-35650",
        "meta_object_id": "2025-268S",
        "meta_epoch": "2025-12-14T01:39:50.663232",
        "meta_mean_motion": 15.50566618,
        "meta_eccentricity": 7.82e-05,
        "meta_inclination": 42.9994,
        "meta_ra_of_asc_node": 113.345,
        "meta_arg_of_pericenter": 308.7789,
        "meta_mean_anomaly": 51.3001,
        "meta_ephemeris_type": 0,
        "meta_classification_type": "U",
        "meta_norad_cat_id": 66573,
        "meta_element_set_no": 999,
        "meta_rev_at_epoch": 483,
        "meta_bstar": 0.0018861975,
        "meta_mean_motion_dot": 0.00111857,
        "meta_mean_motion_ddot": 0,
        "tle_line1": "1 66573U 25268S   25348.06933638  .00111857  00000+0  18862-2 0  9999",
        "tle_line2": "2 66573  42.9994 113.3450 0000782 308.7789  51.3001 15.50566618  4830"
      },
      "geometry": {
        "type": "Point",
        "coordinates": [
          12.925161676086326,
          -42.97845441657948
        ]
      }
    },
    {
      "type": "Feature",
      "properties": {
        "norad_id": 66574,
        "name": "STARLINK-35812",
        "group": "last-30-days",
        "lat": -42.95230952257928,
        "lon": 15.754993425857613,
        "alt_km": 416.3222444796975,
        "timestamp": "2025-12-15T19:00:44.076725+00:00",
        "meta_object_name": "STARLINK-35812",
        "meta_object_id": "2025-268T",
        "meta_epoch": "2025-12-14T01:39:20.923488",
        "meta_mean_motion": 15.50571155,
        "meta_eccentricity": 0.00014446,
        "meta_inclination": 42.9999,
        "meta_ra_of_asc_node": 113.3431,
        "meta_arg_of_pericenter": 286.1846,
        "meta_mean_anomaly": 73.8855,
        "meta_ephemeris_type": 0,
        "meta_classification_type": "U",
        "meta_norad_cat_id": 66574,
        "meta_element_set_no": 999,
        "meta_rev_at_epoch": 483,
        "meta_bstar": 0.002097662,
        "meta_mean_motion_dot": 0.00124662,
        "meta_mean_motion_ddot": 0,
        "tle_line1": "1 66574U 25268T   25348.06899217  .00124662  00000+0  20977-2 0  9992",
        "tle_line2": "2 66574  42.9999 113.3431 0001444 286.1846  73.8855 15.50571155  4832"
      },
      "geometry": {
        "type": "Point",
        "coordinates": [
          15.754993425857613,
          -42.95230952257928
        ]
      }
    },
    {
      "type": "Feature",
      "properties": {
        "norad_id": 66575,
        "name": "STARLINK-35810",
        "group": "last-30-days",
        "lat": -42.86550745448033,
        "lon": 18.355651506097608,
        "alt_km": 416.75627242830706,
        "timestamp": "2025-12-15T19:00:44.076736+00:00",
        "meta_object_name": "STARLINK-35810",
        "meta_object_id": "2025-268U",
        "meta_epoch": "2025-12-14T01:38:51.479232",
        "meta_mean_motion": 15.50571534,
        "meta_eccentricity": 7.343e-05,
        "meta_inclination": 42.9994,
        "meta_ra_of_asc_node": 113.3403,
        "meta_arg_of_pericenter": 288.2643,
        "meta_mean_anomaly": 71.8137,
        "meta_ephemeris_type": 0,
        "meta_classification_type": "U",
        "meta_norad_cat_id": 66575,
        "meta_element_set_no": 999,
        "meta_rev_at_epoch": 483,
        "meta_bstar": 0.0020886687,
        "meta_mean_motion_dot": 0.00124118,
        "meta_mean_motion_ddot": 0,
        "tle_line1": "1 66575U 25268U   25348.06865138  .00124118  00000+0  20887-2 0  9994",
        "tle_line2": "2 66575  42.9994 113.3403 0000734 288.2643  71.8137 15.50571534  4838"
      },
      "geometry": {
        "type": "Point",
        "coordinates": [
          18.355651506097608,
          -42.86550745448033
        ]
      }
    },
    {
      "type": "Feature",
      "properties": {
        "norad_id": 66576,
        "name": "STARLINK-35814",
        "group": "last-30-days",
        "lat": -42.71624231907624,
        "lon": 21.003989590276774,
        "alt_km": 416.73436131309154,
        "timestamp": "2025-12-15T19:00:44.076762+00:00",
        "meta_object_name": "STARLINK-35814",
        "meta_object_id": "2025-268V",
        "meta_epoch": "2025-12-14T01:38:21.809472",
        "meta_mean_motion": 15.50577135,
        "meta_eccentricity": 6.713e-05,
        "meta_inclination": 42.9992,
        "meta_ra_of_asc_node": 113.3375,
        "meta_arg_of_pericenter": 268.1794,
        "meta_mean_anomaly": 91.8989,
        "meta_ephemeris_type": 0,
        "meta_classification_type": "U",
        "meta_norad_cat_id": 66576,
        "meta_element_set_no": 999,
        "meta_rev_at_epoch": 483,
        "meta_bstar": 0.0020849721,
        "meta_mean_motion_dot": 0.0012392,
        "meta_mean_motion_ddot": 0,
        "tle_line1": "1 66576U 25268V   25348.06830798  .00123920  00000+0  20850-2 0  9999",
        "tle_line2": "2 66576  42.9992 113.3375 0000671 268.1794  91.8989 15.50577135  4839"
      },
      "geometry": {
        "type": "Point",
        "coordinates": [
          21.003989590276774,
          -42.71624231907624
        ]
      }
    },
    {
      "type": "Feature",
      "properties": {
        "norad_id": 66577,
        "name": "STARLINK-35815",
        "group": "last-30-days",
        "lat": -42.52911153205467,
        "lon": 23.380852463598064,
        "alt_km": 417.3677343835443,
        "timestamp": "2025-12-15T19:00:44.076776+00:00",
        "meta_object_name": "STARLINK-35815",
        "meta_object_id": "2025-268W",
        "meta_epoch": "2025-12-14T01:37:52.474944",
        "meta_mean_motion": 15.50567436,
        "meta_eccentricity": 9.281e-05,
        "meta_inclination": 42.9989,
        "meta_ra_of_asc_node": 113.3346,
        "meta_arg_of_pericenter": 8.2351,
        "meta_mean_anomaly": 351.8524,
        "meta_ephemeris_type": 0,
        "meta_classification_type": "U",
        "meta_norad_cat_id": 66577,
        "meta_element_set_no": 999,
        "meta_rev_at_epoch": 483,
        "meta_bstar": 0.0019712973,
        "meta_mean_motion_dot": 0.00117,
        "meta_mean_motion_ddot": 0,
        "tle_line1": "1 66577U 25268W   25348.06796846  .00117000  00000+0  19713-2 0  9993",
        "tle_line2": "2 66577  42.9989 113.3346 0000928   8.2351 351.8524 15.50567436  4838"
      },
      "geometry": {
        "type": "Point",
        "coordinates": [
          23.380852463598064,
          -42.52911153205467
        ]
      }
    },
    {
      "type": "Feature",
      "properties": {
        "norad_id": 66578,
        "name": "STARLINK-35743",
        "group": "last-30-days",
        "lat": -42.04689388809278,
        "lon": 27.800795354043554,
        "alt_km": 416.0803158375138,
        "timestamp": "2025-12-15T19:00:44.076787+00:00",
        "meta_object_name": "STARLINK-35743",
        "meta_object_id": "2025-268X",
        "meta_epoch": "2025-12-13T17:53:34.638720",
        "meta_mean_motion": 15.50625412,
        "meta_eccentricity": 0.00013233,
        "meta_inclination": 42.9997,
        "meta_ra_of_asc_node": 115.215,
        "meta_arg_of_pericenter": 330.5178,
        "meta_mean_anomaly": 29.5607,
        "meta_ephemeris_type": 0,
        "meta_classification_type": "U",
        "meta_norad_cat_id": 66578,
        "meta_element_set_no": 999,
        "meta_rev_at_epoch": 478,
        "meta_bstar": 0.0024358562,
        "meta_mean_motion_dot": 0.00145485,
        "meta_mean_motion_ddot": 0,
        "tle_line1": "1 66578U 25268X   25347.74553980  .00145485  00000+0  24359-2 0  9998",
        "tle_line2": "2 66578  42.9997 115.2150 0001323 330.5178  29.5607 15.50625412  4784"
      },
      "geometry": {
        "type": "Point",
        "coordinates": [
          27.800795354043554,
          -42.04689388809278
        ]
      }
    },
    {
      "type": "Feature",
      "properties": {
        "norad_id": 66579,
        "name": "STARLINK-35868",
        "group": "last-30-days",
        "lat": -41.96540406500311,
        "lon": 28.415103382985446,
        "alt_km": 416.7330947207274,
        "timestamp": "2025-12-15T19:00:44.076797+00:00",
        "meta_object_name": "STARLINK-35868",
        "meta_object_id": "2025-268Y",
        "meta_epoch": "2025-12-14T01:36:52.892640",
        "meta_mean_motion": 15.50567958,
        "meta_eccentricity": 9.202e-05,
        "meta_inclination": 42.9993,
        "meta_ra_of_asc_node": 113.3295,
        "meta_arg_of_pericenter": 291.0176,
        "meta_mean_anomaly": 69.0586,
        "meta_ephemeris_type": 0,
        "meta_classification_type": "U",
        "meta_norad_cat_id": 66579,
        "meta_element_set_no": 999,
        "meta_rev_at_epoch": 483,
        "meta_bstar": 0.0018580379,
        "meta_mean_motion_dot": 0.00110163,
        "meta_mean_motion_ddot": 0,
        "tle_line1": "1 66579U 25268Y   25348.06727885  .00110163  00000+0  18580-2 0  9996",
        "tle_line2": "2 66579  42.9993 113.3295 0000920 291.0176  69.0586 15.50567958  4832"
      },
      "geometry": {
        "type": "Point",
        "coordinates": [
          28.415103382985446,
          -41.96540406500311
        ]
      }
    }
  ]
}